{"type": "FeatureCollection", "features": [ {"type": "Feature", "properties": {"norad_id": 66573, "name": "STARLINK-35650", "group": "last-30-days", "lat": -6.567568592607358, "lon": 4.683715831675443, "alt_km": 345.01054686868974, "timestamp": "2025-12-03T04:52:28.421436+00:00", "meta": {"OBJECT_NAME": "STARLINK-35650", "OBJECT_ID": "2025-268S", "EPOCH": "2025-12-02T20:00:03.000384", "MEAN_MOTION": 15.75299936, "ECCENTRICITY": 0.0002006, "INCLINATION": 42.9981, "RA_OF_ASC_NODE": 179.8302, "ARG_OF_PERICENTER": 266.138, "MEAN_ANOMALY": 344.2821, "EPHEMERIS_TYPE": 0, "CLASSIFICATION_TYPE": "U", "NORAD_CAT_ID": 66573, "ELEMENT_SET_NO": 999, "REV_AT_EPOCH": 307, "BSTAR": -0.0027458, "MEAN_MOTION_DOT": -0.00407229, "MEAN_MOTION_DDOT": 0}, "tle": {"line1": "1 66573U 25268S   25336.83336806 -.00407229  00000+0 -27458-2 0  9999", "line2": "2 66573  42.9981 179.8302 0002006 266.1380 344.2821 15.75299936  3076"}}, "geometry": {"type": "Point", "coordinates": [4.683715831675443, -6.567568592607358]}}, {"type": "Feature", "properties": {"norad_id": 66574, "name": "STARLINK-35812", "group": "last-30-days", "lat": -7.858271458415698, "lon": 6.099162586167951, "alt_km": 345.30876007061033, "timestamp": "2025-12-03T04:52:28.421448+00:00", "meta": {"OBJECT_NAME": "STARLINK-35812", "OBJECT_ID": "2025-268T", "EPOCH": "2025-12-02T20:00:03.000384", "MEAN_MOTION": 15.75265129, "ECCENTRICITY": 0.0001328, "INCLINATION": 42.9981, "RA_OF_ASC_NODE": 179.8249, "ARG_OF_PERICENTER": 269.8255, "MEAN_ANOMALY": 342.5294, "EPHEMERIS_TYPE": 0, "CLASSIFICATION_TYPE": "U", "NORAD_CAT_ID": 66574, "ELEMENT_SET_NO": 999, "REV_AT_EPOCH": 307, "BSTAR": -0.0025463, "MEAN_MOTION_DOT": -0.00378316, "MEAN_MOTION_DDOT": 0}, "tle": {"line1": "1 66574U 25268T   25336.83336806 -.00378316  00000+0 -25463-2 0  9998", "line2": "2 66574  42.9981 179.8249 0001328 269.8255 342.5294 15.75265129  3076"}}, "geometry": {"type": "Point", "coordinates": [6.099162586167951, -7.858271458415698]}}, {"type": "Feature", "properties": {"norad_id": 66575, "name": "STARLINK-35810", "group": "last-30-days", "lat": -9.148413529865563, "lon": 7.528600252737172, "alt_km": 345.5309280189176, "timestamp": "2025-12-03T04:52:28.421458+00:00", "meta": {"OBJECT_NAME": "STARLINK-35810", "OBJECT_ID": "2025-268U", "EPOCH": "2025-12-02T20:00:03.000384", "MEAN_MOTION": 15.75193846, "ECCENTRICITY": 0.0001845, "INCLINATION": 42.9981, "RA_OF_ASC_NODE": 179.82, "ARG_OF_PERICENTER": 280.4636, "MEAN_ANOMALY": 333.8488, "EPHEMERIS_TYPE": 0, "CLASSIFICATION_TYPE": "U", "NORAD_CAT_ID": 66575, "ELEMENT_SET_NO": 999, "REV_AT_EPOCH": 307, "BSTAR": -0.0017424, "MEAN_MOTION_DOT": -0.00261778, "MEAN_MOTION_DDOT": 0}, "tle": {"line1": "1 66575U 25268U   25336.83336806 -.00261778  00000+0 -17424-2 0  9990", "line2": "2 66575  42.9981 179.8200 0001845 280.4636 333.8488 15.75193846  3074"}}, "geometry": {"type": "Point", "coordinates": [7.528600252737172, -9.148413529865563]}}, {"type": "Feature", "properties": {"norad_id": 66576, "name": "STARLINK-35814", "group": "last-30-days", "lat": -10.434234493269642, "lon": 8.96987052205782, "alt_km": 345.6101547864582, "timestamp": "2025-12-03T04:52:28.421469+00:00", "meta": {"OBJECT_NAME": "STARLINK-35814", "OBJECT_ID": "2025-268V", "EPOCH": "2025-12-02T20:00:03.000384", "MEAN_MOTION": 15.75155372, "ECCENTRICITY": 0.0001703, "INCLINATION": 42.9981, "RA_OF_ASC_NODE": 179.815, "ARG_OF_PERICENTER": 279.4688, "MEAN_ANOMALY": 336.7877, "EPHEMERIS_TYPE": 0, "CLASSIFICATION_TYPE": "U", "NORAD_CAT_ID": 66576, "ELEMENT_SET_NO": 999, "REV_AT_EPOCH": 307, "BSTAR": -0.0014088, "MEAN_MOTION_DOT": -0.00212616, "MEAN_MOTION_DDOT": 0}, "tle": {"line1": "1 66576U 25268V   25336.83336806 -.00212616  00000+0 -14088-2 0  9991", "line2": "2 66576  42.9981 179.8150 0001703 279.4688 336.7877 15.75155372  3073"}}, "geometry": {"type": "Point", "coordinates": [8.96987052205782, -10.434234493269642]}}, {"type": "Feature", "properties": {"norad_id": 66577, "name": "STARLINK-35815", "group": "last-30-days", "lat": -11.704888489312303, "lon": 10.413436292369514, "alt_km": 345.6535309238161, "timestamp": "2025-12-03T04:52:28.421479+00:00", "meta": {"OBJECT_NAME": "STARLINK-35815", "OBJECT_ID": "2025-268W", "EPOCH": "2025-12-02T20:00:03.000384", "MEAN_MOTION": 15.75063269, "ECCENTRICITY": 0.0001302, "INCLINATION": 42.9982, "RA_OF_ASC_NODE": 179.8102, "ARG_OF_PERICENTER": 279.1086, "MEAN_ANOMALY": 339.0967, "EPHEMERIS_TYPE": 0, "CLASSIFICATION_TYPE": "U", "NORAD_CAT_ID": 66577, "ELEMENT_SET_NO": 999, "REV_AT_EPOCH": 307, "BSTAR": -0.00040439, "MEAN_MOTION_DOT": -0.00062203, "MEAN_MOTION_DDOT": 0}, "tle": {"line1": "1 66577U 25268W   25336.83336806 -.00062203  00000+0 -40439-3 0  9997", "line2": "2 66577  42.9982 179.8102 0001302 279.1086 339.0967 15.75063269  3075"}}, "geometry": {"type": "Point", "coordinates": [10.413436292369514, -11.704888489312303]}}, {"type": "Feature", "properties": {"norad_id": 66578, "name": "STARLINK-35743", "group": "last-30-days", "lat": -12.97595184608847, "lon": 11.879296218296956, "alt_km": 345.78465178660645, "timestamp": "2025-12-03T04:52:28.421489+00:00", "meta": {"OBJECT_NAME": "STARLINK-35743", "OBJECT_ID": "2025-268X", "EPOCH": "2025-12-02T20:00:03.000384", "MEAN_MOTION": 15.7506683, "ECCENTRICITY": 0.000133, "INCLINATION": 42.9982, "RA_OF_ASC_NODE": 179.8054, "ARG_OF_PERICENTER": 280.0389, "MEAN_ANOMALY": 340.087, "EPHEMERIS_TYPE": 0, "CLASSIFICATION_TYPE": "U", "NORAD_CAT_ID": 66578, "ELEMENT_SET_NO": 999, "REV_AT_EPOCH": 307, "BSTAR": -0.00048481, "MEAN_MOTION_DOT": -0.00074383, "MEAN_MOTION_DDOT": 0}, "tle": {"line1": "1 66578U 25268X   25336.83336806 -.00074383  00000+0 -48481-3 0  9995", "line2": "2 66578  42.9982 179.8054 0001330 280.0389 340.0870 15.75066830  3072"}}, "geometry": {"type": "Point", "coordinates": [11.879296218296956, -12.97595184608847]}}, {"type": "Feature", "properties": {"norad_id": 66579, "name": "STARLINK-35868", "group": "last-30-days", "lat": -14.226368080490387, "lon": 13.345529800530818, "alt_km": 345.34318783051367, "timestamp": "2025-12-03T04:52:28.421499+00:00", "meta": {"OBJECT_NAME": "STARLINK-35868", "OBJECT_ID": "2025-268Y", "EPOCH": "2025-12-02T20:00:03.000384", "MEAN_MOTION": 15.75002877, "ECCENTRICITY": 0.0002157, "INCLINATION": 42.9981, "RA_OF_ASC_NODE": 179.8004, "ARG_OF_PERICENTER": 264.2666, "MEAN_ANOMALY": 357.7931, "EPHEMERIS_TYPE": 0, "CLASSIFICATION_TYPE": "U", "NORAD_CAT_ID": 66579, "ELEMENT_SET_NO": 999, "REV_AT_EPOCH": 307, "BSTAR": 0.00029562, "MEAN_MOTION_DOT": 0.00045105, "MEAN_MOTION_DDOT": 0}, "tle": {"line1": "1 66579U 25268Y   25336.83336806  .00045105  00000+0  29562-3 0  9993", "line2": "2 66579  42.9981 179.8004 0002157 264.2666 357.7931 15.75002877  3071"}}, "geometry": {"type": "Point", "coordinates": [13.345529800530818, -14.226368080490387]}}, {"type": "Feature", "properties": {"norad_id": 66580, "name": "STARLINK-35872", "group": "last-30-days", "lat": -15.479867603775613, "lon": 14.843115366060218, "alt_km": 345.4921592282981, "timestamp": "2025-12-03T04:52:28.421508+00:00", "meta": {"OBJECT_NAME": "STARLINK-35872", "OBJECT_ID": "2025-268Z", "EPOCH": "2025-12-02T20:00:03.000384", "MEAN_MOTION": 15.74995073, "ECCENTRICITY": 0.000203, "INCLINATION": 42.9981, "RA_OF_ASC_NODE": 179.7958, "ARG_OF_PERICENTER": 265.7087, "MEAN_ANOMALY": 358.2743, "EPHEMERIS_TYPE": 0, "CLASSIFICATION_TYPE": "U", "NORAD_CAT_ID": 66580, "ELEMENT_SET_NO": 999, "REV_AT_EPOCH": 307, "BSTAR": 0.00035925, "MEAN_MOTION_DOT": 0.00054962, "MEAN_MOTION_DDOT": 0}, "tle": {"line1": "1 66580U 25268Z   25336.83336806  .00054962  00000+0  35925-3 0  9996", "line2": "2 66580  42.9981 179.7958 0002030 265.7087 358.2743 15.74995073  3078"}}, "geometry": {"type": "Point", "coordinates": [14.843115366060218, -15.479867603775613]}}, {"type": "Feature", "properties": {"norad_id": 66581, "name": "STARLINK-35744", "group": "last-30-days", "lat": -16.727589630023406, "lon": 16.363555400065316, "alt_km": 345.6278238456034, "timestamp": "2025-12-03T04:52:28.421518+00:00", "meta": {"OBJECT_NAME": "STARLINK-35744", "OBJECT_ID": "2025-268AA", "EPOCH": "2025-12-02T20:00:03.000384", "MEAN_MOTION": 15.75027231, "ECCENTRICITY": 0.0002013, "INCLINATION": 42.9982, "RA_OF_ASC_NODE": 179.7904, "ARG_OF_PERICENTER": 267.0072, "MEAN_ANOMALY": 358.8862, "EPHEMERIS_TYPE": 0, "CLASSIFICATION_TYPE": "U", "NORAD_CAT_ID": 66581, "ELEMENT_SET_NO": 999, "REV_AT_EPOCH": 302, "BSTAR": -3.2248e-06, "MEAN_MOTION_DOT": -9.73e-06, "MEAN_MOTION_DDOT": 0}, "tle": {"line1": "1 66581U 25268AA  25336.83336806 -.00000973  00000+0 -32248-5 0  9999", "line2": "2 66581  42.9982 179.7904 0002013 267.0072 358.8862 15.75027231  3027"}}, "geometry": {"type": "Point", "coordinates": [16.363555400065316, -16.727589630023406]}}, {"type": "Feature", "properties": {"norad_id": 66582, "name": "STARLINK-35746", "group": "last-30-days", "lat": -17.940787635028745, "lon": 17.875590282041877, "alt_km": 346.26329474686645, "timestamp": "2025-12-03T04:52:28.421528+00:00", "meta": {"OBJECT_NAME": "STARLINK-35746", "OBJECT_ID": "2025-268AB", "EPOCH": "2025-12-02T20:00:03.000384", "MEAN_MOTION": 15.74944111, "ECCENTRICITY": 0.0001761, "INCLINATION": 42.9982, "RA_OF_ASC_NODE": 179.7857, "ARG_OF_PERICENTER": 295.7648, "MEAN_ANOMALY": 332.0559, "EPHEMERIS_TYPE": 0, "CLASSIFICATION_TYPE": "U", "NORAD_CAT_ID": 66582, "ELEMENT_SET_NO": 999, "REV_AT_EPOCH": 307, "BSTAR": 0.00095923, "MEAN_MOTION_DOT": 0.00148879, "MEAN_MOTION_DDOT": 0}, "tle": {"line1": "1 66582U 25268AB  25336.83336806  .00148879  00000+0  95923-3 0  9993", "line2": "2 66582  42.9982 179.7857 0001761 295.7648 332.0559 15.74944111  3077"}}, "geometry": {"type": "Point", "coordinates": [17.875590282041877, -17.940787635028745]}}]}